{"fetched_at": "2026-03-14T06:13:15.092258+00:00", "count": 376, "satellites": [ {"name": "ISS (ZARYA)", "tle1": "1 25544U 98067A   26072.70791847  .00011780  00000+0  22432-3 0  9992", "tle2": "2 25544  51.6324  52.4887 0007884 189.2977 170.7866 15.48633802556952", "norad_id": 25544, "group": "stations", "highlight": true}, {"name": "POISK", "tle1": "1 36086U 09060A   26072.70791847  .00011780  00000+0  22432-3 0  9990", "tle2": "2 36086  51.6324  52.4887 0007884 189.2977 170.7866 15.48633802554447", "norad_id": 36086, "group": "stations", "highlight": false}, {"name": "CSS (TIANHE)", "tle1": "1 48274U 21035A   26072.74677078  .00031927  00000+0  37303-3 0  9999", "tle2": "2 48274  41.4663 183.4723 0006740 298.0497  61.9660 15.60891715278249", "norad_id": 48274, "group": "stations", "highlight": false}, {"name": "ISS (NAUKA)", "tle1": "1 49044U 21066A   26072.70791847  .00011780  00000+0  22432-3 0  9998", "tle2": "2 49044  51.6324  52.4887 0007884 189.2977 170.7866 15.48633802554456", "norad_id": 49044, "group": "stations", "highlight": true}, {"name": "FREGAT DEB", "tle1": "1 49271U 11037PF  26071.98788539  .00019193  00000+0  27403-1 0  9997", "tle2": "2 49271  51.6525 290.8604 0961558  66.9712 302.9578 12.40314724213102", "norad_id": 49271, "group": "stations", "highlight": false}, {"name": "CSS (WENTIAN)", "tle1": "1 53239U 22085A   26072.74677078  .00031927  00000+0  37303-3 0  9992", "tle2": "2 53239  41.4663 183.4723 0006740 298.0497  61.9660 15.60891715275614", "norad_id": 53239, "group": "stations", "highlight": false}, {"name": "CSS (MENGTIAN)", "tle1": "1 54216U 22143A   26072.74677078  .00031927  00000+0  37303-3 0  9993", "tle2": "2 54216  41.4663 183.4723 0006740 298.0497  61.9660 15.60891715275586", "norad_id": 54216, "group": "stations", "highlight": false}, {"name": "PROGRESS-MS 31", "tle1": "1 64751U 25146A   26072.70791847  .00011780  00000+0  22432-3 0  9993", "tle2": "2 64751  51.6324  52.4887 0007884 189.2977 170.7866 15.48633802554469", "norad_id": 64751, "group": "stations", "highlight": false}, {"name": "TIANZHOU-9", "tle1": "1 64786U 25149A   26072.74677078  .00031927  00000+0  37303-3 0  9995", "tle2": "2 64786  41.4663 183.4723 0006740 298.0497  61.9660 15.60891715275590", "norad_id": 64786, "group": "stations", "highlight": false}, {"name": "PROGRESS-MS 32", "tle1": "1 65586U 25204A   26072.70791847  .00011780  00000+0  22432-3 0  9995", "tle2": "2 65586  51.6324  52.4887 0007884 189.2977 170.7866 15.48633802554501", "norad_id": 65586, "group": "stations", "highlight": false}, {"name": "CYGNUS NG-23", "tle1": "1 65616U 25208A   26072.90071792  .00011774  00000+0  21410-3 0  9993", "tle2": "2 65616  51.6322  51.5270 0007651 190.7955 169.2871 15.49963053   245", "norad_id": 65616, "group": "stations", "highlight": false}, {"name": "YOTSUBA-KULOVER", "tle1": "1 65941U 98067XN  26072.30764432  .00245250  00000+0  11334-2 0  9992", "tle2": "2 65941  51.6207  38.5032 0005145  94.5757 265.5833 15.82254050 24078", "norad_id": 65941, "group": "stations", "highlight": false}, {"name": "E-KAGAKU-1", "tle1": "1 65943U 98067XQ  26072.31297397  .00236005  00000+0  11129-2 0  9996", "tle2": "2 65943  51.6233  38.5579 0005696  99.5179 260.6467 15.81842071 24073", "norad_id": 65943, "group": "stations", "highlight": false}, {"name": "HRC MONOBLOCK CAMERA", "tle1": "1 66052U 98067XR  26072.28215557  .00055964  00000+0  61502-3 0  9996", "tle2": "2 66052  51.6278  47.3965 0003816 109.8372 250.3034 15.62620622 22959", "norad_id": 66052, "group": "stations", "highlight": false}, {"name": "HTV-X1", "tle1": "1 66174U 25241A   26072.95050348  .00014808  00000+0  63551-3 0  9992", "tle2": "2 66174  51.6355  52.5822 0005751 185.6974 174.3939 15.22900979 21602", "norad_id": 66174, "group": "stations", "highlight": false}, {"name": "SZ-21 MODULE", "tle1": "1 66515U 25246C   26072.57488950  .00042463  00000+0  36005-3 0  9990", "tle2": "2 66515  41.4731 179.4377 0001010 309.0341  51.0410 15.68874146 18689", "norad_id": 66515, "group": "stations", "highlight": false}]}