[{"OBJECT_NAME":"ISS (ZARYA)","OBJECT_ID":"1998-067A","EPOCH":"2026-03-13T16:59:24.155808","MEAN_MOTION":15.48633802,"ECCENTRICITY":0.00078842,"INCLINATION":51.6324,"RA_OF_ASC_NODE":52.4887,"ARG_OF_PERICENTER":189.2977,"MEAN_ANOMALY":170.7866,"EPHEMERIS_TYPE":0,"CLASSIFICATION_TYPE":"U","NORAD_CAT_ID":25544,"ELEMENT_SET_NO":999,"REV_AT_EPOCH":55695,"BSTAR":0.00022432227,"MEAN_MOTION_DOT":0.0001178,"MEAN_MOTION_DDOT":0},{"OBJECT_NAME":"POISK","OBJECT_ID":"2009-060A","EPOCH":"2026-03-13T16:59:24.155808","MEAN_MOTION":15.48633802,"ECCENTRICITY":0.00078842,"INCLINATION":51.6324,"RA_OF_ASC_NODE":52.4887,"ARG_OF_PERICENTER":189.2977,"MEAN_ANOMALY":170.7866,"EPHEMERIS_TYPE":0,"CLASSIFICATION_TYPE":"U","NORAD_CAT_ID":36086,"ELEMENT_SET_NO":999,"REV_AT_EPOCH":55444,"BSTAR":0.00022432227,"MEAN_MOTION_DOT":0.0001178,"MEAN_MOTION_DDOT":0},{"OBJECT_NAME":"CSS (TIANHE)","OBJECT_ID":"2021-035A","EPOCH":"2026-03-13T17:55:20.995392","MEAN_MOTION":15.60891715,"ECCENTRICITY":0.00067405,"INCLINATION":41.4663,"RA_OF_ASC_NODE":183.4723,"ARG_OF_PERICENTER":298.0497,"MEAN_ANOMALY":61.966,"EPHEMERIS_TYPE":0,"CLASSIFICATION_TYPE":"U","NORAD_CAT_ID":48274,"ELEMENT_SET_NO":999,"REV_AT_EPOCH":27824,"BSTAR":0.00037303176,"MEAN_MOTION_DOT":0.00031927,"MEAN_MOTION_DDOT":0},{"OBJECT_NAME":"ISS (NAUKA)","OBJECT_ID":"2021-066A","EPOCH":"2026-03-13T16:59:24.155808","MEAN_MOTION":15.48633802,"ECCENTRICITY":0.00078842,"INCLINATION":51.6324,"RA_OF_ASC_NODE":52.4887,"ARG_OF_PERICENTER":189.2977,"MEAN_ANOMALY":170.7866,"EPHEMERIS_TYPE":0,"CLASSIFICATION_TYPE":"U","NORAD_CAT_ID":49044,"ELEMENT_SET_NO":999,"REV_AT_EPOCH":55445,"BSTAR":0.00022432227,"MEAN_MOTION_DOT":0.0001178,"MEAN_MOTION_DDOT":0},{"OBJECT_NAME":"FREGAT DEB","OBJECT_ID":"2011-037PF","EPOCH":"2026-03-12T23:42:33.297696","MEAN_MOTION":12.40314724,"ECCENTRICITY":0.09615585,"INCLINATION":51.6525,"RA_OF_ASC_NODE":290.8604,"ARG_OF_PERICENTER":66.9712,"MEAN_ANOMALY":302.9578,"EPHEMERIS_TYPE":0,"CLASSIFICATION_TYPE":"U","NORAD_CAT_ID":49271,"ELEMENT_SET_NO":999,"REV_AT_EPOCH":21310,"BSTAR":0.027402908,"MEAN_MOTION_DOT":0.00019193,"MEAN_MOTION_DDOT":0},{"OBJECT_NAME":"CSS (WENTIAN)","OBJECT_ID":"2022-085A","EPOCH":"2026-03-13T17:55:20.995392","MEAN_MOTION":15.60891715,"ECCENTRICITY":0.00067405,"INCLINATION":41.4663,"RA_OF_ASC_NODE":183.4723,"ARG_OF_PERICENTER":298.0497,"MEAN_ANOMALY":61.966,"EPHEMERIS_TYPE":0,"CLASSIFICATION_TYPE":"U","NORAD_CAT_ID":53239,"ELEMENT_SET_NO":999,"REV_AT_EPOCH":27561,"BSTAR":0.00037303176,"MEAN_MOTION_DOT":0.00031927,"MEAN_MOTION_DDOT":0},{"OBJECT_NAME":"CSS (MENGTIAN)","OBJECT_ID":"2022-143A","EPOCH":"2026-03-13T17:55:20.995392","MEAN_MOTION":15.60891715,"ECCENTRICITY":0.00067405,"INCLINATION":41.4663,"RA_OF_ASC_NODE":183.4723,"ARG_OF_PERICENTER":298.0497,"MEAN_ANOMALY":61.966,"EPHEMERIS_TYPE":0,"CLASSIFICATION_TYPE":"U","NORAD_CAT_ID":54216,"ELEMENT_SET_NO":999,"REV_AT_EPOCH":27558,"BSTAR":0.00037303176,"MEAN_MOTION_DOT":0.00031927,"MEAN_MOTION_DDOT":0},{"OBJECT_NAME":"PROGRESS-MS 31","OBJECT_ID":"2025-146A","EPOCH":"2026-03-13T16:59:24.155808","MEAN_MOTION":15.48633802,"ECCENTRICITY":0.00078842,"INCLINATION":51.6324,"RA_OF_ASC_NODE":52.4887,"ARG_OF_PERICENTER":189.2977,"MEAN_ANOMALY":170.7866,"EPHEMERIS_TYPE":0,"CLASSIFICATION_TYPE":"U","NORAD_CAT_ID":64751,"ELEMENT_SET_NO":999,"REV_AT_EPOCH":55446,"BSTAR":0.00022432227,"MEAN_MOTION_DOT":0.0001178,"MEAN_MOTION_DDOT":0},{"OBJECT_NAME":"TIANZHOU-9","OBJECT_ID":"2025-149A","EPOCH":"2026-03-13T17:55:20.995392","MEAN_MOTION":15.60891715,"ECCENTRICITY":0.00067405,"INCLINATION":41.4663,"RA_OF_ASC_NODE":183.4723,"ARG_OF_PERICENTER":298.0497,"MEAN_ANOMALY":61.966,"EPHEMERIS_TYPE":0,"CLASSIFICATION_TYPE":"U","NORAD_CAT_ID":64786,"ELEMENT_SET_NO":999,"REV_AT_EPOCH":27559,"BSTAR":0.00037303176,"MEAN_MOTION_DOT":0.00031927,"MEAN_MOTION_DDOT":0},{"OBJECT_NAME":"PROGRESS-MS 32","OBJECT_ID":"2025-204A","EPOCH":"2026-03-13T16:59:24.155808","MEAN_MOTION":15.48633802,"ECCENTRICITY":0.00078842,"INCLINATION":51.6324,"RA_OF_ASC_NODE":52.4887,"ARG_OF_PERICENTER":189.2977,"MEAN_ANOMALY":170.7866,"EPHEMERIS_TYPE":0,"CLASSIFICATION_TYPE":"U","NORAD_CAT_ID":65586,"ELEMENT_SET_NO":999,"REV_AT_EPOCH":55450,"BSTAR":0.00022432227,"MEAN_MOTION_DOT":0.0001178,"MEAN_MOTION_DDOT":0},{"OBJECT_NAME":"CYGNUS NG-23","OBJECT_ID":"2025-208A","EPOCH":"2026-03-13T21:37:02.028288","MEAN_MOTION":15.49963053,"ECCENTRICITY":0.00076511,"INCLINATION":51.6322,"RA_OF_ASC_NODE":51.527,"ARG_OF_PERICENTER":190.7955,"MEAN_ANOMALY":169.2871,"EPHEMERIS_TYPE":0,"CLASSIFICATION_TYPE":"U","NORAD_CAT_ID":65616,"ELEMENT_SET_NO":999,"REV_AT_EPOCH":24,"BSTAR":0.00021410259,"MEAN_MOTION_DOT":0.00011774,"MEAN_MOTION_DDOT":0},{"OBJECT_NAME":"YOTSUBA-KULOVER","OBJECT_ID":"1998-067XN","EPOCH":"2026-03-13T07:23:00.469248","MEAN_MOTION":15.8225405,"ECCENTRICITY":0.00051453,"INCLINATION":51.6207,"RA_OF_ASC_NODE":38.5032,"ARG_OF_PERICENTER":94.5757,"MEAN_ANOMALY":265.5833,"EPHEMERIS_TYPE":0,"CLASSIFICATION_TYPE":"U","NORAD_CAT_ID":65941,"ELEMENT_SET_NO":999,"REV_AT_EPOCH":2407,"BSTAR":0.0011333954,"MEAN_MOTION_DOT":0.0024525,"MEAN_MOTION_DDOT":0},{"OBJECT_NAME":"E-KAGAKU-1","OBJECT_ID":"1998-067XQ","EPOCH":"2026-03-13T07:30:40.951008","MEAN_MOTION":15.81842071,"ECCENTRICITY":0.00056964,"INCLINATION":51.6233,"RA_OF_ASC_NODE":38.5579,"ARG_OF_PERICENTER":99.5179,"MEAN_ANOMALY":260.6467,"EPHEMERIS_TYPE":0,"CLASSIFICATION_TYPE":"U","NORAD_CAT_ID":65943,"ELEMENT_SET_NO":999,"REV_AT_EPOCH":2407,"BSTAR":0.0011129093,"MEAN_MOTION_DOT":0.00236005,"MEAN_MOTION_DDOT":0},{"OBJECT_NAME":"HRC MONOBLOCK CAMERA","OBJECT_ID":"1998-067XR","EPOCH":"2026-03-13T06:46:18.241248","MEAN_MOTION":15.62620622,"ECCENTRICITY":0.00038167,"INCLINATION":51.6278,"RA_OF_ASC_NODE":47.3965,"ARG_OF_PERICENTER":109.8372,"MEAN_ANOMALY":250.3034,"EPHEMERIS_TYPE":0,"CLASSIFICATION_TYPE":"U","NORAD_CAT_ID":66052,"ELEMENT_SET_NO":999,"REV_AT_EPOCH":2295,"BSTAR":0.00061502343,"MEAN_MOTION_DOT":0.00055964,"MEAN_MOTION_DDOT":0},{"OBJECT_NAME":"HTV-X1","OBJECT_ID":"2025-241A","EPOCH":"2026-03-13T22:48:43.500672","MEAN_MOTION":15.22900979,"ECCENTRICITY":0.00057515,"INCLINATION":51.6355,"RA_OF_ASC_NODE":52.5822,"ARG_OF_PERICENTER":185.6974,"MEAN_ANOMALY":174.3939,"EPHEMERIS_TYPE":0,"CLASSIFICATION_TYPE":"U","NORAD_CAT_ID":66174,"ELEMENT_SET_NO":999,"REV_AT_EPOCH":2160,"BSTAR":0.00063551066,"MEAN_MOTION_DOT":0.00014808,"MEAN_MOTION_DDOT":0},{"OBJECT_NAME":"SZ-21 MODULE","OBJECT_ID":"2025-246C","EPOCH":"2026-03-13T13:47:50.452800","MEAN_MOTION":15.68874146,"ECCENTRICITY":0.00010106,"INCLINATION":41.4731,"RA_OF_ASC_NODE":179.4377,"ARG_OF_PERICENTER":309.0341,"MEAN_ANOMALY":51.041,"EPHEMERIS_TYPE":0,"CLASSIFICATION_TYPE":"U","NORAD_CAT_ID":66515,"ELEMENT_SET_NO":999,"REV_AT_EPOCH":1868,"BSTAR":0.00036004804,"MEAN_MOTION_DOT":0.00042463,"MEAN_MOTION_DDOT":0}]
